{
    "links": {
        "self": "http://www.neowsapp.com/rest/v1/neo/54062088?api_key=iIulBulltgU6a56xZRHN4H3l9WmuAYTsLGpBGhQ2"
    },
    "id": "54062088",
    "neo_reference_id": "54062088",
    "name": "(2020 TZ4)",
    "designation": "2020 TZ4",
    "nasa_jpl_url": "http://ssd.jpl.nasa.gov/sbdb.cgi?sstr=54062088",
    "absolute_magnitude_h": 24.316,
    "estimated_diameter": {
        "kilometers": {
            "estimated_diameter_min": 0.0364212609,
            "estimated_diameter_max": 0.0814404151
        },
        "meters": {
            "estimated_diameter_min": 36.4212608716,
            "estimated_diameter_max": 81.4404151351
        },
        "miles": {
            "estimated_diameter_min": 0.0226311153,
            "estimated_diameter_max": 0.0506047122
        },
        "feet": {
            "estimated_diameter_min": 119.4923295179,
            "estimated_diameter_max": 267.1929715917
        }
    },
    "is_potentially_hazardous_asteroid": false,
    "close_approach_data": [
        {
            "close_approach_date": "2018-10-01",
            "close_approach_date_full": "2018-Oct-01 19:41",
            "epoch_date_close_approach": 1538422860000,
            "relative_velocity": {
                "kilometers_per_second": "26.2961238409",
                "kilometers_per_hour": "94666.0458273732",
                "miles_per_hour": "58821.799419792"
            },
            "miss_distance": {
                "astronomical": "0.4249033938",
                "lunar": "165.2874201882",
                "kilometers": "63564642.668251206",
                "miles": "39497237.4428144028"
            },
            "orbiting_body": "Earth"
        },
        {
            "close_approach_date": "2020-10-19",
            "close_approach_date_full": "2020-Oct-19 21:05",
            "epoch_date_close_approach": 1603141500000,
            "relative_velocity": {
                "kilometers_per_second": "16.5573382191",
                "kilometers_per_hour": "59606.4175887251",
                "miles_per_hour": "37037.1098622831"
            },
            "miss_distance": {
                "astronomical": "0.0786872098",
                "lunar": "30.6093246122",
                "kilometers": "11771438.982323126",
                "miles": "7314433.0088500988"
            },
            "orbiting_body": "Earth"
        },
        {
            "close_approach_date": "2023-03-12",
            "close_approach_date_full": "2023-Mar-12 04:02",
            "epoch_date_close_approach": 1678593720000,
            "relative_velocity": {
                "kilometers_per_second": "14.1720955999",
                "kilometers_per_hour": "51019.544159599",
                "miles_per_hour": "31701.5606473908"
            },
            "miss_distance": {
                "astronomical": "0.2843255066",
                "lunar": "110.6026220674",
                "kilometers": "42534490.174030942",
                "miles": "26429706.6323613196"
            },
            "orbiting_body": "Earth"
        }
    ],
    "orbital_data": {
        "orbit_id": "4",
        "orbit_determination_date": "2020-10-25 07:36:23",
        "first_observation_date": "2020-10-08",
        "last_observation_date": "2020-10-19",
        "data_arc_in_days": 11,
        "observations_used": 27,
        "orbit_uncertainty": "8",
        "minimum_orbit_intersection": ".0786107",
        "jupiter_tisserand_invariant": "4.111",
        "epoch_osculation": "2459135.5",
        "eccentricity": ".4688825807923274",
        "semi_major_axis": "1.622219435539677",
        "inclination": "23.64888673100096",
        "ascending_node_longitude": "19.85752350506413",
        "orbital_period": "754.6799766314077",
        "perihelion_distance": ".8615889999923607",
        "perihelion_argument": "72.04442376420643",
        "aphelion_distance": "2.382849871086993",
        "perihelion_time": "2459192.385221514850",
        "mean_anomaly": "332.864418853731",
        "mean_motion": ".4770233889163157",
        "equinox": "J2000",
        "orbit_class": {
            "orbit_class_type": "APO",
            "orbit_class_description": "Near-Earth asteroid orbits which cross the Earth’s orbit similar to that of 1862 Apollo",
            "orbit_class_range": "a (semi-major axis) > 1.0 AU; q (perihelion) < 1.017 AU"
        }
    },
    "is_sentry_object": false
}